IRIDIUM 7 [-]           
1 24793U 97020B   23303.85398100  .00000685  00000+0  23423-3 0  9993
2 24793  86.3959  66.2497 0001851  91.4637 268.6771 14.34952082386491
IRIDIUM 5 [-]           
1 24795U 97020D   23303.57493040  .00005212  00000+0  51948-3 0  9997
2 24795  86.3963 355.9990 0129842  99.9198 261.6711 14.85165979396811
IRIDIUM 914 [-]         
1 24836U 97030A   23303.88681087  .00000916  00000+0  28671-3 0  9991
2 24836  86.3919  73.8524 0003281  59.3740 300.7782 14.39669376383546
IRIDIUM 16 [-]          
1 24841U 97030F   23303.87261786  .00000886  00000+0  28936-3 0  9996
2 24841  86.3993  95.2570 0001764 157.5287 202.5988 14.37557115381443
IRIDIUM 911 [-]         
1 24842U 97030G   23303.92066487  .00001141  00000+0  31421-3 0  9992
2 24842  86.4421  94.5539 0012326 282.8665  77.1161 14.46086827389013
IRIDIUM 17 [-]          
1 24870U 97034B   23303.90525477  .00000756  00000+0  25022-3 0  9995
2 24870  86.3926 124.9154 0003035 121.2113 238.9382 14.36650621378080
IRIDIUM 920 [-]         
1 24871U 97034C   23304.16117714  .00000812  00000+0  24978-3 0  9998
2 24871  86.3931 105.4197 0009768 238.5469 121.4776 14.40369066381153
